C/2019 JU6 (ATLAS),e,148.3149,21.7268,94.8505,157970,0.0000000,0.99998712,0.0000,06/02.8228/2019,2000,g 14.5,4.0
# From MPEC 2022-O08
C/2019 K1 (ATLAS),e,87.0121,73.3059,265.7629,3593,0.0000046,0.99943809,0.0000,02/11.5018/2020,2000,g 10.0,4.0
# From MPC119997
C/2019 K4 (Ye),e,105.2930,180.2439,139.9997,1583,0.0000157,0.99856228,0.0000,06/15.2406/2019,2000,g 12.5,4.0
# From MPEC 2021-P47
C/2019 K5 (Young),e,15.3022,177.2387,175.1544,169.5264,0.0004465,0.98789569,0.0000,06/21.9908/2019,2000,g 13.0,4.0
# From MPEC 2021-P47
C/2019 K6 (PANSTARRS),e,132.3822,42.9953,187.4703,1035,0.0000296,0.99621320,0.0000,05/19.0703/2020,2000,g 11.5,4.0
# From MPEC 2024-GJ3
C/2019 K7 (Smith),h,06/17.4467/2020,103.4920,308.0210,27.3865,1.000700,4.476281,2000,6.0,4.0
# From MPEC 2021-R75
C/2019 K8 (ATLAS),e,93.0657,290.9995,85.3635,1876,0.0000121,0.99829590,0.0000,07/20.8191/2019,2000,g 11.5,4.0
# From MPEC 2023-A50
C/2019 L1 (PANSTARRS),e,9.9734,254.4266,50.0402,9.825331,0.0320025,0.70437854,61.8525,11/22.0/2024,2000,g 13.5,4.0
# From MPC115886
C/2019 L2 (NEOWISE),e,152.1754,12.5690,18.8632,25.14005,0.0078191,0.93541316,16.1052,11/22.0/2024,2000,g 16.0,4.0
# From MPEC 2024-GJ3
P/2019 LD2 (ATLAS),e,11.5990,179.1581,117.1720,5.183369,0.0835191,0.12887078,146.1291,11/22.0/2024,2000,g  8.5,4.0
# From MPEC 2024-P23
C/2019 L3 (ATLAS),h,01/09.9880/2022,48.3447,290.7298,171.7035,1.002852,3.556438,2000,4.5,4.0
# From MPEC 2020-K19
P/2019 LM4 (Palomar),e,36.4185,72.8436,68.2524,5.702956,0.0723692,0.58578601,143.5011,11/22.0/2024,2000,g  9.5,4.0
# From MPC118095
C/2019 LB7 (Kleyna),e,164.2844,3.9575,336.7309,34.95663,0.0047688,0.92859499,9.8573,11/22.0/2024,2000,g 17.0,4.0
# From MPC118095
C/2019 M3 (ATLAS),e,99.6108,155.0125,87.9323,4691,0.0000031,0.99948303,0.0000,12/31.2658/2018,2000,g 12.2,4.0
# From MPEC 2023-JA2
C/2019 M4 (TESS),h,09/10.6178/2019,65.6805,52.6480,260.3591,1.001305,9.191146,2000,5.0,4.0
# From MPEC 2023-C45
C/2019 N1 (ATLAS),e,82.4838,13.5386,193.3551,1029,0.0000299,0.99834413,0.0000,11/30.6739/2020,2000,g  7.5,4.0
# From MPEC 2023-CD8
A/2019 N2,e,89.3296,276.2122,347.1153,1266,0.0000219,0.99846510,0.0000,08/22.5516/2019,2000,g 12.5,2.0
# From MPEC 2022-A21
C/2019 NJ3 (Lemmon),h,10/22.6051/2020,99.3603,142.4893,246.8852,1.001762,4.363048,2000,9.0,4.0
# From MPEC 2024-R10
C/2019 O2 (PANSTARRS),e,93.3095,48.2592,129.5905,58.58868,0.0021978,0.83475082,1.3092,11/22.0/2024,2000,g  5.0,4.0
# From MPEC 2024-TP3
C/2019 O3 (Palomar),h,03/09.1356/2021,89.8029,300.4656,60.1203,1.003567,8.821246,2000,3.5,4.0
# From MPEC 2021-P47
A/2019 O4,e,115.0380,354.9285,61.8501,33.26515,0.0051371,0.89044813,8.9686,11/22.0/2024,2000,g 15.5,2.0
# From MPEC 2024-EF7
C/2019 Q1 (Lemmon),h,07/21.8118/2020,155.7286,42.4598,56.2579,1.002122,5.004812,2000,8.5,4.0
# From MPC117072
A/2019 Q2,e,158.9950,188.0807,176.4891,58.64597,0.0021946,0.97846471,0.0000,07/23.0663/2019,2000,g 18.0,2.0
# From MPC117072
P/2019 S2 (PANSTARRS),e,10.4638,93.1813,217.0182,4.746376,0.0953149,0.20477915,200.5262,11/22.0/2024,2000,g 13.5,4.0
# From MPEC 2022-CN4
P/2019 S3 (PANSTARRS),e,8.6935,150.1490,213.0874,3.414842,0.1561882,0.47087001,298.7537,11/22.0/2024,2000,g 18.3,4.0
# From MPEC 2021-S45
C/2019 S4 (Lemmon),e,92.1087,63.1585,71.3730,244.9165,0.0002571,0.98595232,0.0000,04/08.9180/2020,2000,g 11.0,4.0
# From MPEC 2023-N01
A/2019 T1,e,120.8435,6.9388,91.0175,38.82221,0.0040746,0.88983485,5.7327,11/22.0/2024,2000,g 13.0,2.0
# From MPEC 2023-R20
C/2019 T2 (Lemmon),e,111.4053,155.6564,239.4073,4457,0.0000033,0.99940666,0.0000,04/22.6698/2021,2000,g  9.0,4.0
# From MPEC 2023-UR6
C/2019 T3 (ATLAS),e,121.8590,139.5372,112.4778,3720,0.0000043,0.99839975,0.0000,03/04.4597/2021,2000,g  6.8,4.0
# From MPEC 2024-VJ2
C/2019 T4 (ATLAS),e,53.6266,199.9218,351.1126,875.4603,0.0000380,0.99515822,0.0000,06/08.6418/2022,2000,g  5.0,4.0
# From MPEC 2021-P47
P/2019 T5 (ATLAS),e,33.5004,247.6106,189.6032,8.004510,0.0435213,0.80984522,84.3398,11/22.0/2024,2000,g 15.0,4.0
# From MPEC 2021-P47
P/2019 T6 (PANSTARRS),e,18.7006,71.2427,329.0436,5.441394,0.0776495,0.62279644,142.8661,11/22.0/2024,2000,g 15.5,4.0
# From MPC118096
P/2019 U4 (PANSTARRS),e,11.6965,200.0121,181.0665,3.519277,0.1492876,0.47587196,282.0046,11/22.0/2024,2000,g 19.0,4.0
# From MPEC 2024-VB7
C/2019 U5 (PANSTARRS),h,03/29.5896/2023,113.5128,2.6248,181.4573,1.000533,3.623836,2000,4.5,4.0
# From MPEC 2022-H04
C/2019 U6 (Lemmon),e,60.9680,235.7847,329.4573,309.8072,0.0001807,0.99706642,0.0000,06/18.2480/2020,2000,g 10.0,4.0
# From MPEC 2022-N37
C/2019 V1 (Borisov),e,61.9482,83.1482,51.1781,2123,0.0000101,0.99854305,0.0000,07/17.1521/2020,2000,g 11.0,4.0
# From MPEC 2022-L66
P/2019 V2 (Groeller),e,11.8069,189.1591,335.6203,7.494622,0.0480374,0.33159108,71.9233,11/22.0/2024,2000,g 10.0,4.0
# From MPEC 2023-A50
P/2019 W1 (PANSTARRS),e,23.4712,35.3715,18.8460,4.548540,0.1016005,0.26731229,205.3957,11/22.0/2024,2000,g 12.9,4.0
# From MPEC 2021-P47
P/2019 X1 (Pruyne),e,10.2486,43.6796,36.9176,6.177486,0.0641928,0.30398149,125.0390,11/22.0/2024,2000,g 10.4,4.0
# From MPEC 2020-C98
P/2019 X2 (Pan-STARRS),e,15.8953,250.8398,213.4780,3.635021,0.1422144,0.50035575,257.1372,11/22.0/2024,2000,g 18.0,4.0
# From MPC119999
C/2019 Y1 (ATLAS),e,73.3385,31.5162,57.9059,87.79609,0.0011981,0.99058235,0.0000,03/16.8912/2020,2000,g 13.7,4.0
# From MPEC 2020-K19
P/2019 Y2 (Fuls),e,4.8766,80.2419,93.2983,3.489473,0.1512043,0.37631409,267.6072,11/22.0/2024,2000,g  9.0,4.0
# From MPEC 2020-C98
P/2019 Y3 (Catalina),e,24.5974,139.2891,2.5657,3.015784,0.1881931,0.69116884,340.9601,11/22.0/2024,2000,g 18.5,4.0
# From MPEC 2024-A43
C/2019 Y4 (ATLAS),e,45.0007,120.7624,177.4281,342.4271,0.0001555,0.99924961,0.0000,05/30.1477/2020,2000,g 11.8,6.0
# From MPEC 2020-L06
C/2019 Y4-A (ATLAS),h,05/30.1909/2020,45.4378,121.1284,177.2611,1.001390,0.255112,2000,11.6,6.0
# From MPEC 2023-J29
C/2019 Y4-B (ATLAS),e,45.1298,120.8700,177.3722,14281,0.0000006,0.99998204,0.0000,05/30.1591/2020,2000,g 12.1,6.0
# From MPEC 2020-L06
C/2019 Y4-C (ATLAS),h,05/30.1430/2020,45.2211,120.8556,177.2942,1.002118,0.256188,2000,12.7,6.0
# From MPEC 2020-L06
C/2019 Y4-D (ATLAS),e,45.2719,121.2204,177.4351,67.76395,0.0017669,0.99622968,0.0000,05/30.2523/2020,2000,g 12.5,6.0
# From MPEC 2023-A50
C/2019 Y5 (PANSTARRS),e,82.7635,51.7529,303.6380,701.1458,0.0000531,0.99296892,0.0000,08/17.0234/2019,2000,g 11.0,4.0
# From MPEC 2023-A50
A/2020 A1,e,149.0321,119.0971,302.4038,25.48648,0.0076602,0.93452786,13.9268,11/22.0/2024,2000,g 18.0,2.0
# From MPEC 2022-YN2
C/2020 A2 (Iwamoto),e,120.5273,286.2099,68.0164,1058,0.0000286,0.99907963,0.0000,01/07.7466/2020,2000,g 13.5,4.0
# From MPEC 2023-A50
C/2020 A3 (ATLAS),e,146.6314,120.8016,268.2646,11732,0.0000008,0.99950958,0.0000,06/27.7506/2019,2000,g  8.0,4.0
# From MPEC 2022-P91
P/2020 A4 (PANSTARRS-Lemmon),e,24.9981,312.3082,144.8478,8.199267,0.0419799,0.65447530,76.6090,11/22.0/2024,2000,g 15.0,4.0
# From MPEC 2020-N08
A/2020 B1,e,18.5335,309.8460,154.8141,51.85430,0.0026395,0.96647819,4.7292,11/22.0/2024,2000,g 21.0,2.0
# From MPEC 2020-HN5
C/2020 B2 (Lemmon),e,55.7527,354.2254,143.5988,67.72400,0.0017684,0.95929881,3.1142,11/22.0/2024,2000,g 10.0,4.0
# From MPEC 2022-N37
C/2020 B3 (Rankin),e,20.7073,185.7894,324.8913,982.5208,0.0000320,0.99661200,0.0000,10/20.2505/2019,2000,g 13.0,4.0
# From MPEC 2023-KD6
P/2020 B4 (Sheppard),e,11.6052,185.9639,341.9851,7.970111,0.0438034,0.19252241,48.1732,11/22.0/2024,2000,g 10.5,4.0
# From MPEC 2024-PC5
C/2020 F2 (ATLAS),h,07/13.1656/2022,163.5896,250.3049,48.2617,1.003658,8.814004,2000,4.5,4.0
# From MPEC 2021-O56
C/2020 F3 (NEOWISE),e,129.1550,61.0978,37.3827,392.2823,0.0001269,0.99924949,0.0000,07/04.5347/2020,2000,g  7.5,5.2
# From MPEC 2024-UQ8
C/2020 F5 (MASTER),e,52.2200,350.5197,310.6559,166.9580,0.0004569,0.97408306,0.0000,03/16.5745/2021,2000,g  6.5,3.2
# From MPEC 2020-L06
C/2020 F6 (PANSTARRS),e,174.5835,207.8705,344.3942,358.5558,0.0001452,0.99024172,0.0000,04/10.9870/2020,2000,g 14.5,2.8
# From MPEC 2024-A43
C/2020 F7 (Lemmon),e,93.9699,321.8354,227.9608,554.9748,0.0000754,0.99038960,0.0000,11/13.6574/2021,2000,g  7.0,4.0
# From MPEC 2023-J29
C/2020 F8 (SWAN),h,05/26.3549/2020,110.5515,259.7966,68.0815,1.000096,0.431249,2000,10.0,4.0
# From MPEC 2020-L06
P/2020 G1 (Pimentel),e,18.5116,240.1108,207.6271,3.607177,0.1438643,0.86078188,245.8880,11/22.0/2024,2000,g 17.0,4.0
# From MPEC 2022-YB4
C/2020 H2 (Pruyne),e,124.7965,277.6715,26.6028,181.0399,0.0004046,0.99542185,0.0000,04/27.3860/2020,2000,g 14.0,3.2
# From MPEC 2020-HM1
C/2020 H3 (Wierzchos),p,06/05.7162/2020,62.5292,30.4456,2.300288,270.6227,2000,13.5,4.0
# From MPEC 2020-L06
C/2020 H4 (Leonard),e,84.4948,307.5129,117.5417,47.82069,0.0029804,0.98064387,0.0000,08/29.4647/2020,2000,g 15.0,3.2
# From MPEC 2024-P23
C/2020 H5 (Robinson),e,70.2439,210.6229,326.2745,5118,0.0000027,0.99817572,0.0000,12/09.9582/2020,2000,g  5.0,4.0
# From MPEC 2024-JU4
C/2020 H6 (ATLAS),e,79.9810,213.7092,20.2196,2385,0.0000085,0.99803018,0.0000,09/29.8629/2021,2000,g  8.0,3.2
# From MPEC 2020-KB7
C/2020 H7 (Lemmon),e,135.9235,323.5194,82.6780,1405,0.0000187,0.99685380,0.0000,06/02.9510/2020,2000,g 11.0,4.0
# From MPEC 2021-N06
C/2020 H8 (PANSTARRS),e,99.7074,68.4451,128.8630,596.8276,0.0000676,0.99217931,0.0000,06/04.6794/2020,2000,g 10.5,4.0
# From MPEC 2022-ED3
A/2020 H9,e,137.8765,213.1571,312.6917,352.3442,0.0001490,0.99272061,0.0000,12/21.9369/2019,2000,g 18.0,2.0
# From MPEC 2023-HN7
C/2020 H11 (PANSTARRS-Lemmon),h,09/13.4256/2020,151.3800,303.0540,91.3917,1.000650,7.621834,2000,8.5,4.0
# From MPEC 2023-KD6
C/2020 J1 (SONEAR),h,04/18.3496/2021,142.3060,226.6040,341.6346,1.000072,3.347148,2000,8.5,3.2
# From MPEC 2024-VJ2
C/2020 K1 (PANSTARRS),e,89.6716,94.3660,213.9770,3961,0.0000040,0.99922398,0.0000,05/08.9584/2023,2000,g  5.5,4.0
# From MPEC 2021-N06
C/2020 K2 (PANSTARRS),h,08/05.3056/2020,90.9955,288.4269,67.3299,1.001920,8.880458,2000,10.8,4.0
# From MPEC 2020-KF9
C/2020 K3 (Leonard),p,06/01.0032/2020,129.0152,64.4924,1.583069,28.3546,2000,14.5,4.0
